[{"OBJECT_NAME":"COSMOS 2523","OBJECT_ID":"2017-037E","EPOCH":"2026-03-09T23:01:03.762912","MEAN_MOTION":14.95066265,"ECCENTRICITY":0.0066686,"INCLINATION":97.5062,"RA_OF_ASC_NODE":86.2978,"ARG_OF_PERICENTER":201.8356,"MEAN_ANOMALY":158.0021,"EPHEMERIS_TYPE":0,"CLASSIFICATION_TYPE":"U","NORAD_CAT_ID":42986,"ELEMENT_SET_NO":999,"REV_AT_EPOCH":45413,"BSTAR":0.00015362789,"MEAN_MOTION_DOT":1.699e-5,"MEAN_MOTION_DDOT":0},{"OBJECT_NAME":"STARLINK-6031","OBJECT_ID":"2023-078AV","EPOCH":"2026-03-09T23:18:26.902080","MEAN_MOTION":14.98332152,"ECCENTRICITY":0.00025154,"INCLINATION":70.0012,"RA_OF_ASC_NODE":343.6972,"ARG_OF_PERICENTER":270.1181,"MEAN_ANOMALY":89.969,"EPHEMERIS_TYPE":0,"CLASSIFICATION_TYPE":"U","NORAD_CAT_ID":56810,"ELEMENT_SET_NO":999,"REV_AT_EPOCH":15272,"BSTAR":2.14396e-6,"MEAN_MOTION_DOT":-6.7e-7,"MEAN_MOTION_DDOT":0}]
